[{"OBJECT_NAME":"STARLINK-4612","OBJECT_ID":"2022-107BC","EPOCH":"2025-10-01T06:29:51.068544","MEAN_MOTION":15.0882871,"ECCENTRICITY":0.0001565,"INCLINATION":53.2179,"RA_OF_ASC_NODE":259.9909,"ARG_OF_PERICENTER":102.8722,"MEAN_ANOMALY":257.2445,"EPHEMERIS_TYPE":0,"CLASSIFICATION_TYPE":"U","NORAD_CAT_ID":53750,"ELEMENT_SET_NO":999,"REV_AT_EPOCH":17053,"BSTAR":3.458072e-6,"MEAN_MOTION_DOT":-2.33e-6,"MEAN_MOTION_DDOT":0},{"OBJECT_NAME":"STARLINK-4718","OBJECT_ID":"2022-111A","EPOCH":"2025-10-01T07:04:13.937664","MEAN_MOTION":15.08838511,"ECCENTRICITY":0.0001046,"INCLINATION":53.2166,"RA_OF_ASC_NODE":279.5944,"ARG_OF_PERICENTER":86.6847,"MEAN_ANOMALY":273.4265,"EPHEMERIS_TYPE":0,"CLASSIFICATION_TYPE":"U","NORAD_CAT_ID":53773,"ELEMENT_SET_NO":999,"REV_AT_EPOCH":16978,"BSTAR":6.064348e-6,"MEAN_MOTION_DOT":-1.91e-6,"MEAN_MOTION_DDOT":0},{"OBJECT_NAME":"STARLINK-4719","OBJECT_ID":"2022-111B","EPOCH":"2025-10-01T06:58:55.861248","MEAN_MOTION":15.0883496,"ECCENTRICITY":0.00016167,"INCLINATION":53.218,"RA_OF_ASC_NODE":279.5699,"ARG_OF_PERICENTER":85.8663,"MEAN_ANOMALY":274.2514,"EPHEMERIS_TYPE":0,"CLASSIFICATION_TYPE":"U","NORAD_CAT_ID":53774,"ELEMENT_SET_NO":999,"REV_AT_EPOCH":16964,"BSTAR":-4.2484761e-5,"MEAN_MOTION_DOT":-9.64e-6,"MEAN_MOTION_DDOT":0},{"OBJECT_NAME":"STARLINK-4722","OBJECT_ID":"2022-111C","EPOCH":"2025-10-01T06:07:19.522848","MEAN_MOTION":15.08837221,"ECCENTRICITY":0.00013916,"INCLINATION":53.2165,"RA_OF_ASC_NODE":270.0837,"ARG_OF_PERICENTER":92.8753,"MEAN_ANOMALY":267.2398,"EPHEMERIS_TYPE":0,"CLASSIFICATION_TYPE":"U","NORAD_CAT_ID":53775,"ELEMENT_SET_NO":999,"REV_AT_EPOCH":16962,"BSTAR":-1.5299e-5,"MEAN_MOTION_DOT":-5.31e-6,"MEAN_MOTION_DDOT":0},{"OBJECT_NAME":"STARLINK-4664","OBJECT_ID":"2022-111E","EPOCH":"2025-09-30T09:16:40.944864","MEAN_MOTION":15.08846932,"ECCENTRICITY":0.00011836,"INCLINATION":53.2168,"RA_OF_ASC_NODE":273.9046,"ARG_OF_PERICENTER":85.6677,"MEAN_ANOMALY":274.4451,"EPHEMERIS_TYPE":0,"CLASSIFICATION_TYPE":"U","NORAD_CAT_ID":53777,"ELEMENT_SET_NO":999,"REV_AT_EPOCH":16949,"BSTAR":0.00012178036,"MEAN_MOTION_DOT":1.651e-5,"MEAN_MOTION_DDOT":0},{"OBJECT_NAME":"STARLINK-4709","OBJECT_ID":"2022-111F","EPOCH":"2025-10-01T06:35:42.902304","MEAN_MOTION":15.08841963,"ECCENTRICITY":0.00015524,"INCLINATION":53.2171,"RA_OF_ASC_NODE":274.4863,"ARG_OF_PERICENTER":100.3936,"MEAN_ANOMALY":259.7231,"EPHEMERIS_TYPE":0,"CLASSIFICATION_TYPE":"U","NORAD_CAT_ID":53778,"ELEMENT_SET_NO":999,"REV_AT_EPOCH":16956,"BSTAR":-6.817203e-6,"MEAN_MOTION_DOT":-3.97e-6,"MEAN_MOTION_DDOT":0},{"OBJECT_NAME":"STARLINK-4706","OBJECT_ID":"2022-111G","EPOCH":"2025-10-01T05:51:24.458112","MEAN_MOTION":15.08834707,"ECCENTRICITY":0.00015502,"INCLINATION":53.2173,"RA_OF_ASC_NODE":270.0167,"ARG_OF_PERICENTER":89.48,"MEAN_ANOMALY":270.637,"EPHEMERIS_TYPE":0,"CLASSIFICATION_TYPE":"U","NORAD_CAT_ID":53779,"ELEMENT_SET_NO":999,"REV_AT_EPOCH":16962,"BSTAR":-1.7149974e-5,"MEAN_MOTION_DOT":-5.61e-6,"MEAN_MOTION_DDOT":0},{"OBJECT_NAME":"STARLINK-4678","OBJECT_ID":"2022-111H","EPOCH":"2025-10-01T06:02:01.492224","MEAN_MOTION":15.08826192,"ECCENTRICITY":0.00016549,"INCLINATION":53.216,"RA_OF_ASC_NODE":270.0635,"ARG_OF_PERICENTER":89.2828,"MEAN_ANOMALY":270.8354,"EPHEMERIS_TYPE":0,"CLASSIFICATION_TYPE":"U","NORAD_CAT_ID":53780,"ELEMENT_SET_NO":999,"REV_AT_EPOCH":16962,"BSTAR":0.00022458306,"MEAN_MOTION_DOT":3.287e-5,"MEAN_MOTION_DDOT":0},{"OBJECT_NAME":"STARLINK-4462","OBJECT_ID":"2022-111J","EPOCH":"2025-10-01T07:10:52.882752","MEAN_MOTION":15.08829045,"ECCENTRICITY":0.00016175,"INCLINATION":53.219,"RA_OF_ASC_NODE":269.6554,"ARG_OF_PERICENTER":103.0717,"MEAN_ANOMALY":257.0456,"EPHEMERIS_TYPE":0,"CLASSIFICATION_TYPE":"U","NORAD_CAT_ID":53781,"ELEMENT_SET_NO":999,"REV_AT_EPOCH":16963,"BSTAR":-3.0196345e-5,"MEAN_MOTION_DOT":-7.68e-6,"MEAN_MOTION_DDOT":0},{"OBJECT_NAME":"STARLINK-4679","OBJECT_ID":"2022-111K","EPOCH":"2025-10-01T05:46:06.318624","MEAN_MOTION":15.08831689,"ECCENTRICITY":0.00014635,"INCLINATION":53.217,"RA_OF_ASC_NODE":269.9955,"ARG_OF_PERICENTER":89.5925,"MEAN_ANOMALY":270.5235,"EPHEMERIS_TYPE":0,"CLASSIFICATION_TYPE":"U","NORAD_CAT_ID":53782,"ELEMENT_SET_NO":999,"REV_AT_EPOCH":16962,"BSTAR":4.926906e-6,"MEAN_MOTION_DOT":-2.1e-6,"MEAN_MOTION_DDOT":0},{"OBJECT_NAME":"STARLINK-4536","OBJECT_ID":"2022-111L","EPOCH":"2025-10-01T07:00:15.235200","MEAN_MOTION":15.0883582,"ECCENTRICITY":0.00015988,"INCLINATION":53.2176,"RA_OF_ASC_NODE":269.6114,"ARG_OF_PERICENTER":97.7942,"MEAN_ANOMALY":262.3232,"EPHEMERIS_TYPE":0,"CLASSIFICATION_TYPE":"U","NORAD_CAT_ID":53783,"ELEMENT_SET_NO":999,"REV_AT_EPOCH":16963,"BSTAR":-0.00025316939,"MEAN_MOTION_DOT":-4.315e-5,"MEAN_MOTION_DDOT":0},{"OBJECT_NAME":"STARLINK-4687","OBJECT_ID":"2022-111M","EPOCH":"2025-10-01T05:40:48.170496","MEAN_MOTION":15.08836629,"ECCENTRICITY":0.00017951,"INCLINATION":53.2181,"RA_OF_ASC_NODE":269.9739,"ARG_OF_PERICENTER":92.6184,"MEAN_ANOMALY":267.5013,"EPHEMERIS_TYPE":0,"CLASSIFICATION_TYPE":"U","NORAD_CAT_ID":53784,"ELEMENT_SET_NO":999,"REV_AT_EPOCH":16962,"BSTAR":-0.00011735692,"MEAN_MOTION_DOT":-2.155e-5,"MEAN_MOTION_DDOT":0},{"OBJECT_NAME":"STARLINK-4743","OBJECT_ID":"2022-111Q","EPOCH":"2025-10-01T06:49:38.624448","MEAN_MOTION":15.0883176,"ECCENTRICITY":0.00013167,"INCLINATION":53.217,"RA_OF_ASC_NODE":269.5567,"ARG_OF_PERICENTER":84.787,"MEAN_ANOMALY":275.3272,"EPHEMERIS_TYPE":0,"CLASSIFICATION_TYPE":"U","NORAD_CAT_ID":53787,"ELEMENT_SET_NO":999,"REV_AT_EPOCH":16963,"BSTAR":-6.3520031e-5,"MEAN_MOTION_DOT":-1.298e-5,"MEAN_MOTION_DDOT":0},{"OBJECT_NAME":"STARLINK-4666","OBJECT_ID":"2022-111S","EPOCH":"2025-10-01T06:33:43.918272","MEAN_MOTION":15.08841479,"ECCENTRICITY":0.00013362,"INCLINATION":53.2161,"RA_OF_ASC_NODE":269.4904,"ARG_OF_PERICENTER":85.3012,"MEAN_ANOMALY":274.8133,"EPHEMERIS_TYPE":0,"CLASSIFICATION_TYPE":"U","NORAD_CAT_ID":53789,"ELEMENT_SET_NO":999,"REV_AT_EPOCH":16962,"BSTAR":0.00087698102,"MEAN_MOTION_DOT":0.00013697,"MEAN_MOTION_DDOT":0},{"OBJECT_NAME":"STARLINK-4734","OBJECT_ID":"2022-111T","EPOCH":"2025-10-01T06:54:57.137184","MEAN_MOTION":15.08840355,"ECCENTRICITY":0.00012865,"INCLINATION":53.2159,"RA_OF_ASC_NODE":269.5824,"ARG_OF_PERICENTER":94.4158,"MEAN_ANOMALY":265.6981,"EPHEMERIS_TYPE":0,"CLASSIFICATION_TYPE":"U","NORAD_CAT_ID":53790,"ELEMENT_SET_NO":999,"REV_AT_EPOCH":16963,"BSTAR":-2.731585e-6,"MEAN_MOTION_DOT":-3.31e-6,"MEAN_MOTION_DDOT":0},{"OBJECT_NAME":"STARLINK-4739","OBJECT_ID":"2022-111V","EPOCH":"2025-10-01T06:24:37.064160","MEAN_MOTION":15.08842794,"ECCENTRICITY":0.00015202,"INCLINATION":53.2175,"RA_OF_ASC_NODE":270.1454,"ARG_OF_PERICENTER":94.125,"MEAN_ANOMALY":265.9916,"EPHEMERIS_TYPE":0,"CLASSIFICATION_TYPE":"U","NORAD_CAT_ID":53792,"ELEMENT_SET_NO":999,"REV_AT_EPOCH":16961,"BSTAR":-3.3762734e-5,"MEAN_MOTION_DOT":-8.25e-6,"MEAN_MOTION_DDOT":0}]
