STARLINK-4612           
1 53750U 22107BC  25274.27072996 -.00000233  00000+0  34581-5 0  9998
2 53750  53.2179 259.9909 0001565 102.8722 257.2445 15.08828710170536
STARLINK-4718           
1 53773U 22111A   25274.29460576 -.00000191  00000+0  60643-5 0  9996
2 53773  53.2166 279.5944 0001046  86.6847 273.4265 15.08838511169780
STARLINK-4719           
1 53774U 22111B   25274.29092432 -.00000964  00000+0 -42485-4 0  9991
2 53774  53.2180 279.5699 0001616  85.8663 274.2514 15.08834960169649
STARLINK-4722           
1 53775U 22111C   25274.25508707 -.00000531  00000+0 -15299-4 0  9998
2 53775  53.2165 270.0837 0001391  92.8753 267.2398 15.08837221169624
STARLINK-4664           
1 53777U 22111E   25273.38658501  .00001651  00000+0  12178-3 0  9995
2 53777  53.2168 273.9046 0001183  85.6677 274.4451 15.08846932169491
STARLINK-4709           
1 53778U 22111F   25274.27480211 -.00000397  00000+0 -68172-5 0  9991
2 53778  53.2171 274.4863 0001552 100.3936 259.7231 15.08841963169561
STARLINK-4706           
1 53779U 22111G   25274.24403308 -.00000561  00000+0 -17150-4 0  9993
2 53779  53.2173 270.0167 0001550  89.4800 270.6370 15.08834707169629
STARLINK-4678           
1 53780U 22111H   25274.25140616  .00003287  00000+0  22458-3 0  9998
2 53780  53.2160 270.0635 0001654  89.2828 270.8354 15.08826192169623
STARLINK-4462           
1 53781U 22111J   25274.29922318 -.00000768  00000+0 -30196-4 0  9992
2 53781  53.2190 269.6554 0001617 103.0717 257.0456 15.08829045169633
STARLINK-4679           
1 53782U 22111K   25274.24035091 -.00000210  00000+0  49269-5 0  9994
2 53782  53.2170 269.9955 0001463  89.5925 270.5235 15.08831689169629
STARLINK-4536           
1 53783U 22111L   25274.29184300 -.00004315  00000+0 -25317-3 0  9995
2 53783  53.2176 269.6114 0001598  97.7942 262.3232 15.08835820169637
STARLINK-4687           
1 53784U 22111M   25274.23666864 -.00002155  00000+0 -11736-3 0  9990
2 53784  53.2181 269.9739 0001795  92.6184 267.5013 15.08836629169622
STARLINK-4743           
1 53787U 22111Q   25274.28447482 -.00001298  00000+0 -63520-4 0  9997
2 53787  53.2170 269.5567 0001316  84.7870 275.3272 15.08831760169637
STARLINK-4666           
1 53789U 22111S   25274.27342498  .00013697  00000+0  87698-3 0  9994
2 53789  53.2161 269.4904 0001336  85.3012 274.8133 15.08841479169627
STARLINK-4734           
1 53790U 22111T   25274.28816131 -.00000331  00000+0 -27316-5 0  9993
2 53790  53.2159 269.5824 0001286  94.4158 265.6981 15.08840355169636
STARLINK-4739           
1 53792U 22111V   25274.26709565 -.00000825  00000+0 -33763-4 0  9995
2 53792  53.2175 270.1454 0001520  94.1250 265.9916 15.08842794169612
